start=new Date('2023-04-24T00:00:00.000Z').valueOf();
sats=[{"FILE":"3892831","OBJECT_NAME":"STARLINK-3349","EPHEMERIS_TYPE":"0","MEAN_MOTION_DDOT":"0.0000000000000","PERIAPSIS":"538.622","MEAN_ANOMALY":"281.4035","INCLINATION":"53.2155","TLE_LINE1":"1 50813U 22001L   23113.62458736  .00000883  00000-0  73541-4 0  9996","SITE":"AFETR","MEAN_MOTION":"15.08838054","PERIOD":"95.438","MEAN_MOTION_DOT":"0.00000883","ARG_OF_PERICENTER":"78.7141","GP_ID":"230660341","CLASSIFICATION_TYPE":"U","BSTAR":"0.00007354100000","CENTER_NAME":"EARTH","ECCENTRICITY":"0.00016330","NORAD_CAT_ID":"50813","OBJECT_ID":"2022-001L","DECAY_DATE":null,"OBJECT_TYPE":"PAYLOAD","APOAPSIS":"540.881","RA_OF_ASC_NODE":"197.4844","SEMIMAJOR_AXIS":"6917.886","ELEMENT_SET_NO":"999","EPOCH":"2023-04-23T14:59:24.347904","TLE_LINE2":"2 50813  53.2155 197.4844 0001633  78.7141 281.4035 15.08838054 71876","REF_FRAME":"TEME","LAUNCH_DATE":"2022-01-06","COUNTRY_CODE":"US","RCS_SIZE":"LARGE","MEAN_ELEMENT_THEORY":"SGP4","REV_AT_EPOCH":"7187","TIME_SYSTEM":"UTC"},{"COUNTRY_CODE":"US","LAUNCH_DATE":"2022-01-06","RCS_SIZE":"LARGE","TLE_LINE2":"2 50814  53.2143 207.3038 0001365  86.4203 273.6945 15.08857977 71741","EPOCH":"2023-04-23T16:12:16.296768","ELEMENT_SET_NO":"999","REF_FRAME":"TEME","TIME_SYSTEM":"UTC","REV_AT_EPOCH":"7174","MEAN_ELEMENT_THEORY":"SGP4","MEAN_MOTION":"15.08857977","PERIOD":"95.436","EPHEMERIS_TYPE":"0","FILE":"3892831","OBJECT_NAME":"STARLINK-3324","MEAN_MOTION_DDOT":"0.0000000000000","PERIAPSIS":"538.746","SITE":"AFETR","TLE_LINE1":"1 50814U 22001M   23113.67518862  .00034741  00000-0  21891-2 0  9998","INCLINATION":"53.2143","MEAN_ANOMALY":"273.6945","OBJECT_ID":"2022-001M","DECAY_DATE":null,"APOAPSIS":"540.635","OBJECT_TYPE":"PAYLOAD","RA_OF_ASC_NODE":"207.3038","SEMIMAJOR_AXIS":"6917.825","MEAN_MOTION_DOT":"0.00034741","ARG_OF_PERICENTER":"86.4203","CLASSIFICATION_TYPE":"U","GP_ID":"230661592","BSTAR":"0.00218910000000","NORAD_CAT_ID":"50814","CENTER_NAME":"EARTH","ECCENTRICITY":"0.00013650"},{"MEAN_MOTION":"15.08840887","PERIOD":"95.437","EPHEMERIS_TYPE":"0","FILE":"3892831","OBJECT_NAME":"STARLINK-3234","MEAN_MOTION_DDOT":"0.0000000000000","PERIAPSIS":"538.845","MEAN_ANOMALY":"265.0976","TLE_LINE1":"1 50815U 22001N   23113.61998957  .00000979  00000-0  79574-4 0  9999","SITE":"AFETR","INCLINATION":"53.2146","DECAY_DATE":null,"OBJECT_ID":"2022-001N","OBJECT_TYPE":"PAYLOAD","APOAPSIS":"540.641","RA_OF_ASC_NODE":"207.5495","SEMIMAJOR_AXIS":"6917.878","MEAN_MOTION_DOT":"0.00000979","ARG_OF_PERICENTER":"95.0164","GP_ID":"230661838","CLASSIFICATION_TYPE":"U","BSTAR":"0.00007957400000","ECCENTRICITY":"0.00012980","CENTER_NAME":"EARTH","NORAD_CAT_ID":"50815","COUNTRY_CODE":"US","LAUNCH_DATE":"2022-01-06","RCS_SIZE":"LARGE","ELEMENT_SET_NO":"999","EPOCH":"2023-04-23T14:52:47.098848","TLE_LINE2":"2 50815  53.2146 207.5495 0001298  95.0164 265.0976 15.08840887 71731","REF_FRAME":"TEME","TIME_SYSTEM":"UTC","REV_AT_EPOCH":"7173","MEAN_ELEMENT_THEORY":"SGP4"},{"RCS_SIZE":"LARGE","LAUNCH_DATE":"2022-01-06","COUNTRY_CODE":"US","REF_FRAME":"TEME","EPOCH":"2023-04-23T10:59:37.638528","TLE_LINE2":"2 50816  53.2147 208.2792 0001585  84.1655 275.9518 15.08836667 71704","ELEMENT_SET_NO":"999","REV_AT_EPOCH":"7170","TIME_SYSTEM":"UTC","MEAN_ELEMENT_THEORY":"SGP4","PERIOD":"95.438","MEAN_MOTION":"15.08836667","SITE":"AFETR","TLE_LINE1":"1 50816U 22001P   23113.45807452  .00001488  00000-0  11155-3 0  9997","INCLINATION":"53.2147","MEAN_ANOMALY":"275.9518","PERIAPSIS":"538.659","MEAN_MOTION_DDOT":"0.0000000000000","FILE":"3892831","OBJECT_NAME":"STARLINK-3342","EPHEMERIS_TYPE":"0","SEMIMAJOR_AXIS":"6917.891","RA_OF_ASC_NODE":"208.2792","APOAPSIS":"540.852","OBJECT_TYPE":"PAYLOAD","OBJECT_ID":"2022-001P","DECAY_DATE":null,"NORAD_CAT_ID":"50816","CENTER_NAME":"EARTH","ECCENTRICITY":"0.00015850","BSTAR":"0.00011155000000","CLASSIFICATION_TYPE":"U","GP_ID":"230660091","MEAN_MOTION_DOT":"0.00001488","ARG_OF_PERICENTER":"84.1655"},{"EPHEMERIS_TYPE":"0","FILE":"3892831","OBJECT_NAME":"STARLINK-3341","MEAN_MOTION_DDOT":"0.0000000000000","PERIAPSIS":"538.782","MEAN_ANOMALY":"264.8441","INCLINATION":"53.2146","TLE_LINE1":"1 50817U 22001Q   23113.68255274  .00005097  00000-0  33812-3 0  9996","SITE":"AFETR","MEAN_MOTION":"15.08839597","PERIOD":"95.438","MEAN_MOTION_DOT":"0.00005097","ARG_OF_PERICENTER":"95.2711","GP_ID":"230660841","CLASSIFICATION_TYPE":"U","BSTAR":"0.00033812000000","ECCENTRICITY":"0.00013950","CENTER_NAME":"EARTH","NORAD_CAT_ID":"50817","DECAY_DATE":null,"OBJECT_ID":"2022-001Q","OBJECT_TYPE":"PAYLOAD","APOAPSIS":"540.712","RA_OF_ASC_NODE":"207.2694","SEMIMAJOR_AXIS":"6917.882","ELEMENT_SET_NO":"999","EPOCH":"2023-04-23T16:22:52.556736","TLE_LINE2":"2 50817  53.2146 207.2694 0001395  95.2711 264.8441 15.08839597 71740","REF_FRAME":"TEME","LAUNCH_DATE":"2022-01-06","COUNTRY_CODE":"US","RCS_SIZE":"LARGE","MEAN_ELEMENT_THEORY":"SGP4","TIME_SYSTEM":"UTC","REV_AT_EPOCH":"7174"},{"ECCENTRICITY":"0.00012800","CENTER_NAME":"EARTH","NORAD_CAT_ID":"50818","BSTAR":"0.00010056000000","GP_ID":"230661092","CLASSIFICATION_TYPE":"U","ARG_OF_PERICENTER":"94.3432","MEAN_MOTION_DOT":"0.00001313","SEMIMAJOR_AXIS":"6917.875","RA_OF_ASC_NODE":"207.0619","OBJECT_TYPE":"PAYLOAD","APOAPSIS":"540.626","OBJECT_ID":"2022-001R","DECAY_DATE":null,"MEAN_ANOMALY":"265.7706","SITE":"AFETR","TLE_LINE1":"1 50818U 22001R   23113.73038949  .00001313  00000-0  10056-3 0  9993","INCLINATION":"53.2167","PERIAPSIS":"538.855","MEAN_MOTION_DDOT":"0.0000000000000","EPHEMERIS_TYPE":"0","FILE":"3892831","OBJECT_NAME":"STARLINK-3336","PERIOD":"95.437","MEAN_MOTION":"15.08841609","MEAN_ELEMENT_THEORY":"SGP4","TIME_SYSTEM":"UTC","REV_AT_EPOCH":"7174","REF_FRAME":"TEME","ELEMENT_SET_NO":"999","EPOCH":"2023-04-23T17:31:45.651936","TLE_LINE2":"2 50818  53.2167 207.0619 0001280  94.3432 265.7706 15.08841609 71743","RCS_SIZE":"LARGE","LAUNCH_DATE":"2022-01-06","COUNTRY_CODE":"US"},{"REV_AT_EPOCH":"7175","TIME_SYSTEM":"UTC","MEAN_ELEMENT_THEORY":"SGP4","RCS_SIZE":"LARGE","COUNTRY_CODE":"US","LAUNCH_DATE":"2022-01-06","REF_FRAME":"TEME","ELEMENT_SET_NO":"999","EPOCH":"2023-04-23T17:42:21.461760","TLE_LINE2":"2 50819  53.2150 207.0220 0001272  86.5335 273.5802 15.08829427 71759","SEMIMAJOR_AXIS":"6917.913","RA_OF_ASC_NODE":"207.0220","OBJECT_TYPE":"PAYLOAD","APOAPSIS":"540.658","OBJECT_ID":"2022-001S","DECAY_DATE":null,"ECCENTRICITY":"0.00012720","CENTER_NAME":"EARTH","NORAD_CAT_ID":"50819","BSTAR":"-0.00012551000000","GP_ID":"230661338","CLASSIFICATION_TYPE":"U","MEAN_MOTION_DOT":"-0.00002284","ARG_OF_PERICENTER":"86.5335","PERIOD":"95.438","MEAN_MOTION":"15.08829427","MEAN_ANOMALY":"273.5802","TLE_LINE1":"1 50819U 22001S   23113.73774840 -.00002284  00000-0 -12551-3 0  9993","SITE":"AFETR","INCLINATION":"53.2150","PERIAPSIS":"538.898","MEAN_MOTION_DDOT":"0.0000000000000","OBJECT_NAME":"STARLINK-3327","FILE":"3892831","EPHEMERIS_TYPE":"0"},{"REV_AT_EPOCH":"7173","TIME_SYSTEM":"UTC","MEAN_ELEMENT_THEORY":"SGP4","RCS_SIZE":"LARGE","LAUNCH_DATE":"2022-01-06","COUNTRY_CODE":"US","REF_FRAME":"TEME","TLE_LINE2":"2 50820  53.2164 207.4060 0001588  71.7220 288.3945 15.08832408 71734","EPOCH":"2023-04-23T15:40:29.485056","ELEMENT_SET_NO":"999","RA_OF_ASC_NODE":"207.4060","SEMIMAJOR_AXIS":"6917.904","OBJECT_ID":"2022-001T","DECAY_DATE":null,"APOAPSIS":"540.867","OBJECT_TYPE":"PAYLOAD","BSTAR":"0.00000948440000","NORAD_CAT_ID":"50820","ECCENTRICITY":"0.00015880","CENTER_NAME":"EARTH","MEAN_MOTION_DOT":"-0.00000137","ARG_OF_PERICENTER":"71.7220","CLASSIFICATION_TYPE":"U","GP_ID":"230660592","MEAN_MOTION":"15.08832408","PERIOD":"95.438","PERIAPSIS":"538.670","INCLINATION":"53.2164","TLE_LINE1":"1 50820U 22001T   23113.65311904 -.00000137  00000-0  94844-5 0  9995","SITE":"AFETR","MEAN_ANOMALY":"288.3945","OBJECT_NAME":"STARLINK-3339","FILE":"3892831","EPHEMERIS_TYPE":"0","MEAN_MOTION_DDOT":"0.0000000000000"},{"MEAN_ELEMENT_THEORY":"SGP4","TIME_SYSTEM":"UTC","REV_AT_EPOCH":"7175","REF_FRAME":"TEME","ELEMENT_SET_NO":"999","EPOCH":"2023-04-23T18:31:28.002432","TLE_LINE2":"2 50821  53.2156 206.8845 0001867 257.7725 102.3058 15.08706444 71758","RCS_SIZE":"LARGE","COUNTRY_CODE":"US","LAUNCH_DATE":"2022-01-06","BSTAR":"0.00540540000000","ECCENTRICITY":"0.00018670","CENTER_NAME":"EARTH","NORAD_CAT_ID":"50821","ARG_OF_PERICENTER":"257.7725","MEAN_MOTION_DOT":"0.00086480","GP_ID":"230660342","CLASSIFICATION_TYPE":"U","RA_OF_ASC_NODE":"206.8845","SEMIMAJOR_AXIS":"6918.289","DECAY_DATE":null,"OBJECT_ID":"2022-001U","OBJECT_TYPE":"PAYLOAD","APOAPSIS":"541.445","PERIAPSIS":"538.862","MEAN_ANOMALY":"102.3058","TLE_LINE1":"1 50821U 22001U   23113.77185188  .00086480  00000-0  54054-2 0  9992","INCLINATION":"53.2156","SITE":"AFETR","FILE":"3892831","OBJECT_NAME":"STARLINK-3346","EPHEMERIS_TYPE":"0","MEAN_MOTION_DDOT":"0.0000000000000","MEAN_MOTION":"15.08706444","PERIOD":"95.446"},{"ELEMENT_SET_NO":"999","TLE_LINE2":"2 50822  53.2152 208.3306 0001304  73.4875 286.6260 15.08832719 71700","EPOCH":"2023-04-23T10:43:43.671936","REF_FRAME":"TEME","LAUNCH_DATE":"2022-01-06","COUNTRY_CODE":"US","RCS_SIZE":"LARGE","MEAN_ELEMENT_THEORY":"SGP4","TIME_SYSTEM":"UTC","REV_AT_EPOCH":"7170","MEAN_MOTION_DDOT":"0.0000000000000","OBJECT_NAME":"STARLINK-3343","FILE":"3892831","EPHEMERIS_TYPE":"0","MEAN_ANOMALY":"286.6260","SITE":"AFETR","TLE_LINE1":"1 50822U 22001V   23113.44703324  .00001964  00000-0  14150-3 0  9993","INCLINATION":"53.2152","PERIAPSIS":"538.866","PERIOD":"95.438","MEAN_MOTION":"15.08832719","GP_ID":"230661593","CLASSIFICATION_TYPE":"U","ARG_OF_PERICENTER":"73.4875","MEAN_MOTION_DOT":"0.00001964","ECCENTRICITY":"0.00013040","CENTER_NAME":"EARTH","NORAD_CAT_ID":"50822","BSTAR":"0.00014150000000","OBJECT_TYPE":"PAYLOAD","APOAPSIS":"540.670","OBJECT_ID":"2022-001V","DECAY_DATE":null,"SEMIMAJOR_AXIS":"6917.903","RA_OF_ASC_NODE":"208.3306"}];
